ORBCOMM FM20            
1 25416U 98046D   24229.16904729  .00003724  00000+0  13281-2 0  9994
2 25416  44.9923 184.2091 0001604 314.9723  45.0994 14.35611043360442
ORBCOMM FM16            
1 25417U 98046E   24229.19568432  .00005473  00000+0  18854-2 0  9999
2 25417  44.9920 179.0683 0003022 230.5002 129.5579 14.36731698360579
ORBCOMM FM15            
1 25418U 98046F   24228.61534049  .00004155  00000+0  14521-2 0  9996
2 25418  44.9953 186.1120 0002836 235.5244 124.5336 14.36427461360448
ORBCOMM FM14            
1 25419U 98046G   24228.90527925  .00004377  00000+0  15203-2 0  9998
2 25419  44.9941 183.7053 0001549 245.7437 114.3249 14.36645545360277
ORBCOMM FM13            
1 25420U 98046H   24228.58524626  .00004385  00000+0  15482-2 0  9997
2 25420  44.9952 190.6688 0003357 203.7089 156.3604 14.35831301360411
ORBCOMM FM21            
1 25475U 98053A   24229.16844653  .00003674  00000+0  13078-2 0  9994
2 25475  45.0075 272.3908 0002030 252.8329 107.2296 14.35725709353712
ORBCOMM FM23            
1 25477U 98053C   24228.84554592  .00002845  00000+0  10233-2 0  9999
2 25477  45.0079 276.3073 0001562 225.0092 135.0629 14.35759081353486
