<?xml version="1.0" encoding="UTF-8"?>
<ndm xmlns:xsi="http://www.w3.org/2001/XMLSchema-instance" xsi:noNamespaceSchemaLocation="https://sanaregistry.org/r/ndmxml_unqualified/ndmxml-2.0.0-master-2.0.xsd">
<omm id="CCSDS_OMM_VERS" version="2.0">
<header><CREATION_DATE/><ORIGINATOR/></header><body><segment><metadata><OBJECT_NAME>ORBCOMM FM20</OBJECT_NAME><OBJECT_ID>1998-046D</OBJECT_ID><CENTER_NAME>EARTH</CENTER_NAME><REF_FRAME>TEME</REF_FRAME><TIME_SYSTEM>UTC</TIME_SYSTEM><MEAN_ELEMENT_THEORY>SGP4</MEAN_ELEMENT_THEORY></metadata><data><meanElements><EPOCH>2024-08-16T04:03:25.685856</EPOCH><MEAN_MOTION>14.35611043</MEAN_MOTION><ECCENTRICITY>.0001604</ECCENTRICITY><INCLINATION>44.9923</INCLINATION><RA_OF_ASC_NODE>184.2091</RA_OF_ASC_NODE><ARG_OF_PERICENTER>314.9723</ARG_OF_PERICENTER><MEAN_ANOMALY>45.0994</MEAN_ANOMALY></meanElements><tleParameters><EPHEMERIS_TYPE>0</EPHEMERIS_TYPE><CLASSIFICATION_TYPE>U</CLASSIFICATION_TYPE><NORAD_CAT_ID>25416</NORAD_CAT_ID><ELEMENT_SET_NO>999</ELEMENT_SET_NO><REV_AT_EPOCH>36044</REV_AT_EPOCH><BSTAR>.13281E-2</BSTAR><MEAN_MOTION_DOT>.3724E-4</MEAN_MOTION_DOT><MEAN_MOTION_DDOT>0</MEAN_MOTION_DDOT></tleParameters></data></segment></body></omm>
<omm id="CCSDS_OMM_VERS" version="2.0">
<header><CREATION_DATE/><ORIGINATOR/></header><body><segment><metadata><OBJECT_NAME>ORBCOMM FM16</OBJECT_NAME><OBJECT_ID>1998-046E</OBJECT_ID><CENTER_NAME>EARTH</CENTER_NAME><REF_FRAME>TEME</REF_FRAME><TIME_SYSTEM>UTC</TIME_SYSTEM><MEAN_ELEMENT_THEORY>SGP4</MEAN_ELEMENT_THEORY></metadata><data><meanElements><EPOCH>2024-08-16T04:41:47.125248</EPOCH><MEAN_MOTION>14.36731698</MEAN_MOTION><ECCENTRICITY>.0003022</ECCENTRICITY><INCLINATION>44.9920</INCLINATION><RA_OF_ASC_NODE>179.0683</RA_OF_ASC_NODE><ARG_OF_PERICENTER>230.5002</ARG_OF_PERICENTER><MEAN_ANOMALY>129.5579</MEAN_ANOMALY></meanElements><tleParameters><EPHEMERIS_TYPE>0</EPHEMERIS_TYPE><CLASSIFICATION_TYPE>U</CLASSIFICATION_TYPE><NORAD_CAT_ID>25417</NORAD_CAT_ID><ELEMENT_SET_NO>999</ELEMENT_SET_NO><REV_AT_EPOCH>36057</REV_AT_EPOCH><BSTAR>.18854E-2</BSTAR><MEAN_MOTION_DOT>.5473E-4</MEAN_MOTION_DOT><MEAN_MOTION_DDOT>0</MEAN_MOTION_DDOT></tleParameters></data></segment></body></omm>
<omm id="CCSDS_OMM_VERS" version="2.0">
<header><CREATION_DATE/><ORIGINATOR/></header><body><segment><metadata><OBJECT_NAME>ORBCOMM FM15</OBJECT_NAME><OBJECT_ID>1998-046F</OBJECT_ID><CENTER_NAME>EARTH</CENTER_NAME><REF_FRAME>TEME</REF_FRAME><TIME_SYSTEM>UTC</TIME_SYSTEM><MEAN_ELEMENT_THEORY>SGP4</MEAN_ELEMENT_THEORY></metadata><data><meanElements><EPOCH>2024-08-15T14:46:05.418336</EPOCH><MEAN_MOTION>14.36427461</MEAN_MOTION><ECCENTRICITY>.0002836</ECCENTRICITY><INCLINATION>44.9953</INCLINATION><RA_OF_ASC_NODE>186.1120</RA_OF_ASC_NODE><ARG_OF_PERICENTER>235.5244</ARG_OF_PERICENTER><MEAN_ANOMALY>124.5336</MEAN_ANOMALY></meanElements><tleParameters><EPHEMERIS_TYPE>0</EPHEMERIS_TYPE><CLASSIFICATION_TYPE>U</CLASSIFICATION_TYPE><NORAD_CAT_ID>25418</NORAD_CAT_ID><ELEMENT_SET_NO>999</ELEMENT_SET_NO><REV_AT_EPOCH>36044</REV_AT_EPOCH><BSTAR>.14521E-2</BSTAR><MEAN_MOTION_DOT>.4155E-4</MEAN_MOTION_DOT><MEAN_MOTION_DDOT>0</MEAN_MOTION_DDOT></tleParameters></data></segment></body></omm>
<omm id="CCSDS_OMM_VERS" version="2.0">
<header><CREATION_DATE/><ORIGINATOR/></header><body><segment><metadata><OBJECT_NAME>ORBCOMM FM14</OBJECT_NAME><OBJECT_ID>1998-046G</OBJECT_ID><CENTER_NAME>EARTH</CENTER_NAME><REF_FRAME>TEME</REF_FRAME><TIME_SYSTEM>UTC</TIME_SYSTEM><MEAN_ELEMENT_THEORY>SGP4</MEAN_ELEMENT_THEORY></metadata><data><meanElements><EPOCH>2024-08-15T21:43:36.127200</EPOCH><MEAN_MOTION>14.36645545</MEAN_MOTION><ECCENTRICITY>.0001549</ECCENTRICITY><INCLINATION>44.9941</INCLINATION><RA_OF_ASC_NODE>183.7053</RA_OF_ASC_NODE><ARG_OF_PERICENTER>245.7437</ARG_OF_PERICENTER><MEAN_ANOMALY>114.3249</MEAN_ANOMALY></meanElements><tleParameters><EPHEMERIS_TYPE>0</EPHEMERIS_TYPE><CLASSIFICATION_TYPE>U</CLASSIFICATION_TYPE><NORAD_CAT_ID>25419</NORAD_CAT_ID><ELEMENT_SET_NO>999</ELEMENT_SET_NO><REV_AT_EPOCH>36027</REV_AT_EPOCH><BSTAR>.15203E-2</BSTAR><MEAN_MOTION_DOT>.4377E-4</MEAN_MOTION_DOT><MEAN_MOTION_DDOT>0</MEAN_MOTION_DDOT></tleParameters></data></segment></body></omm>
<omm id="CCSDS_OMM_VERS" version="2.0">
<header><CREATION_DATE/><ORIGINATOR/></header><body><segment><metadata><OBJECT_NAME>ORBCOMM FM13</OBJECT_NAME><OBJECT_ID>1998-046H</OBJECT_ID><CENTER_NAME>EARTH</CENTER_NAME><REF_FRAME>TEME</REF_FRAME><TIME_SYSTEM>UTC</TIME_SYSTEM><MEAN_ELEMENT_THEORY>SGP4</MEAN_ELEMENT_THEORY></metadata><data><meanElements><EPOCH>2024-08-15T14:02:45.276864</EPOCH><MEAN_MOTION>14.35831301</MEAN_MOTION><ECCENTRICITY>.0003357</ECCENTRICITY><INCLINATION>44.9952</INCLINATION><RA_OF_ASC_NODE>190.6688</RA_OF_ASC_NODE><ARG_OF_PERICENTER>203.7089</ARG_OF_PERICENTER><MEAN_ANOMALY>156.3604</MEAN_ANOMALY></meanElements><tleParameters><EPHEMERIS_TYPE>0</EPHEMERIS_TYPE><CLASSIFICATION_TYPE>U</CLASSIFICATION_TYPE><NORAD_CAT_ID>25420</NORAD_CAT_ID><ELEMENT_SET_NO>999</ELEMENT_SET_NO><REV_AT_EPOCH>36041</REV_AT_EPOCH><BSTAR>.15482E-2</BSTAR><MEAN_MOTION_DOT>.4385E-4</MEAN_MOTION_DOT><MEAN_MOTION_DDOT>0</MEAN_MOTION_DDOT></tleParameters></data></segment></body></omm>
<omm id="CCSDS_OMM_VERS" version="2.0">
<header><CREATION_DATE/><ORIGINATOR/></header><body><segment><metadata><OBJECT_NAME>ORBCOMM FM21</OBJECT_NAME><OBJECT_ID>1998-053A</OBJECT_ID><CENTER_NAME>EARTH</CENTER_NAME><REF_FRAME>TEME</REF_FRAME><TIME_SYSTEM>UTC</TIME_SYSTEM><MEAN_ELEMENT_THEORY>SGP4</MEAN_ELEMENT_THEORY></metadata><data><meanElements><EPOCH>2024-08-16T04:02:33.780192</EPOCH><MEAN_MOTION>14.35725709</MEAN_MOTION><ECCENTRICITY>.000203</ECCENTRICITY><INCLINATION>45.0075</INCLINATION><RA_OF_ASC_NODE>272.3908</RA_OF_ASC_NODE><ARG_OF_PERICENTER>252.8329</ARG_OF_PERICENTER><MEAN_ANOMALY>107.2296</MEAN_ANOMALY></meanElements><tleParameters><EPHEMERIS_TYPE>0</EPHEMERIS_TYPE><CLASSIFICATION_TYPE>U</CLASSIFICATION_TYPE><NORAD_CAT_ID>25475</NORAD_CAT_ID><ELEMENT_SET_NO>999</ELEMENT_SET_NO><REV_AT_EPOCH>35371</REV_AT_EPOCH><BSTAR>.13078E-2</BSTAR><MEAN_MOTION_DOT>.3674E-4</MEAN_MOTION_DOT><MEAN_MOTION_DDOT>0</MEAN_MOTION_DDOT></tleParameters></data></segment></body></omm>
<omm id="CCSDS_OMM_VERS" version="2.0">
<header><CREATION_DATE/><ORIGINATOR/></header><body><segment><metadata><OBJECT_NAME>ORBCOMM FM23</OBJECT_NAME><OBJECT_ID>1998-053C</OBJECT_ID><CENTER_NAME>EARTH</CENTER_NAME><REF_FRAME>TEME</REF_FRAME><TIME_SYSTEM>UTC</TIME_SYSTEM><MEAN_ELEMENT_THEORY>SGP4</MEAN_ELEMENT_THEORY></metadata><data><meanElements><EPOCH>2024-08-15T20:17:35.167488</EPOCH><MEAN_MOTION>14.35759081</MEAN_MOTION><ECCENTRICITY>.0001562</ECCENTRICITY><INCLINATION>45.0079</INCLINATION><RA_OF_ASC_NODE>276.3073</RA_OF_ASC_NODE><ARG_OF_PERICENTER>225.0092</ARG_OF_PERICENTER><MEAN_ANOMALY>135.0629</MEAN_ANOMALY></meanElements><tleParameters><EPHEMERIS_TYPE>0</EPHEMERIS_TYPE><CLASSIFICATION_TYPE>U</CLASSIFICATION_TYPE><NORAD_CAT_ID>25477</NORAD_CAT_ID><ELEMENT_SET_NO>999</ELEMENT_SET_NO><REV_AT_EPOCH>35348</REV_AT_EPOCH><BSTAR>.10233E-2</BSTAR><MEAN_MOTION_DOT>.2845E-4</MEAN_MOTION_DOT><MEAN_MOTION_DDOT>0</MEAN_MOTION_DDOT></tleParameters></data></segment></body></omm>

</ndm>
